241P/LINEAR,e,21.1024,305.4769,111.4569,4.920897,0.0902896,0.61031463,42.3527,11/07.0/2022,2000,g 13.5,4.0
# From MPEC 2021-S45
242P/Spahr,e,32.5107,180.3747,245.4335,5.501509,0.0763803,0.27900570,300.2737,11/07.0/2022,2000,g  8.0,4.0
# From MPEC 2022-K19
243P/NEAT,e,7.6412,87.6020,283.6258,3.829938,0.1314972,0.36060163,201.4550,11/07.0/2022,2000,g 12.5,4.0
# From MPEC 2022-V95
244P/Scotti,e,2.2593,353.9915,93.1076,4.895990,0.0909795,0.19926394,359.0676,11/07.0/2022,2000,g  9.0,4.0
# From MPEC 2022-CN4
245P/WISE,e,21.1906,316.6633,316.8647,4.047124,0.1210554,0.45625782,209.8728,11/07.0/2022,2000,g 14.0,4.0
# From MPEC 2022-V95
246P/NEAT,e,15.9780,78.2584,177.3355,4.036197,0.1215474,0.28974089,75.2530,11/07.0/2022,2000,g 10.5,4.0
# From MPEC 2021-F20
247P/LINEAR,e,13.6583,54.0262,47.4104,3.967589,0.1247137,0.62460268,179.1741,11/07.0/2022,2000,g 16.5,2.0
# From MPC 75730
248P/Gibbs,e,6.3511,207.8081,209.8605,5.990302,0.0672250,0.63903108,289.8806,11/07.0/2022,2000,g 14.0,4.0
# From MPEC 2021-S45
249P/LINEAR,e,8.3873,239.0920,65.7238,2.763586,0.2145332,0.81976274,184.6181,11/07.0/2022,2000,g 15.5,4.0
# From MPC110497
250P/Larson,e,13.1519,73.3735,46.1094,3.768001,0.1347527,0.39901132,235.6362,11/07.0/2022,2000,g 14.5,4.0
# From MPC104795
251P/LINEAR,e,23.3863,219.3481,31.2650,3.512670,0.1497091,0.50453158,290.6437,11/07.0/2022,2000,g 16.5,2.0
# From MPEC 2021-S45
252P/LINEAR,e,10.4128,190.9178,343.3851,3.050775,0.1849647,0.67141759,89.4975,11/07.0/2022,2000,g 17.5,4.0
# From MPEC 2020-FB5
253P/PANSTARRS,e,4.9434,146.8809,230.6988,3.464728,0.1528271,0.41451918,250.9116,11/07.0/2022,2000,g 14.5,4.0
# From MPEC 2022-UY9
254P/McNaught,e,32.5678,129.1832,219.6396,4.615264,0.0994052,0.31970883,76.3132,11/07.0/2022,2000,g 11.0,4.0
# From MPEC 2021-UA9
255P/Levy,e,13.4109,275.6644,186.0114,2.942022,0.1953149,0.71151576,11.8565,11/07.0/2022,2000,g 14.1,4.0
# From MPEC 2022-C56
256P/LINEAR,e,27.6187,81.3342,124.2005,4.639588,0.0986245,0.41799328,347.6449,11/07.0/2022,2000,g 14.0,2.0
# From MPEC 2021-Y10
257P/Catalina,e,20.2198,207.7184,117.7480,3.763912,0.1349724,0.43010570,106.2661,11/07.0/2022,2000,g 11.5,4.0
# From MPEC 2021-U31
258P/PANSTARRS,e,6.7467,126.2386,25.7932,4.394670,0.1069830,0.20842578,93.3297,11/07.0/2022,2000,g 13.0,4.0
# From MPC106349
259P/Garradd,e,15.8952,51.4308,257.5871,2.730147,0.2184868,0.33887383,59.3706,11/07.0/2022,2000,g 15.5,4.0
# From MPEC 2022-O01
260P/McNaught,e,15.0574,349.3376,18.4395,3.623252,0.1429079,0.60935548,164.8122,11/07.0/2022,2000,g 13.5,4.0
# From MPEC 2021-J28
261P/Larson,e,6.0724,291.1206,67.2483,3.490484,0.1511387,0.42334541,186.8615,11/07.0/2022,2000,g 14.0,4.0
# From MPC 82322
262P/McNaught-Russell,e,29.2834,217.8648,171.0512,6.871892,0.0547129,0.81626246,198.2585,11/07.0/2022,2000,g 13.5,4.0
# From MPEC 2022-V95
263P/Gibbs,e,11.5219,105.5109,35.0387,3.041707,0.1857924,0.59354464,344.2857,11/07.0/2022,2000,g 18.0,4.0
# From MPC114608
264P/Larsen,e,25.3760,220.1950,346.7121,3.884832,0.1287199,0.37632721,153.3447,11/07.0/2022,2000,g 13.0,4.0
# From MPC 79870
265P/LINEAR,e,14.3635,342.9268,33.4783,4.255971,0.1122551,0.64762283,71.3749,11/07.0/2022,2000,g 14.5,4.0
# From MPEC 2021-F20
266P/Christensen,e,3.4270,4.9956,97.6789,3.531699,0.1485007,0.33983814,138.3595,11/07.0/2022,2000,g 14.7,4.0
# From MPC114608
267P/LONEOS,e,6.1430,228.5712,114.2320,3.210837,0.1713077,0.61439767,268.3989,11/07.0/2022,2000,g 19.5,4.0
# From MPC 92277
268P/Bernardi,e,15.7491,126.5583,359.8089,4.577560,0.1006359,0.47733333,282.1928,11/07.0/2022,2000,g 14.0,4.0
# From MPC104795
269P/Jedicke,e,7.0800,241.7418,225.7090,7.069444,0.0524356,0.43142619,155.2242,11/07.0/2022,2000,g 10.0,4.0
# From MPC 88332
270P/Gehrels,e,2.9237,223.0263,209.7655,6.659383,0.0573526,0.46885737,197.0904,11/07.0/2022,2000,g  8.0,4.0
# From MPC 92277
271P/van Houten-Lemmon,e,6.8723,9.3184,36.4068,7.036802,0.0528009,0.39557447,179.4888,11/07.0/2022,2000,g 11.0,4.0
# From MPEC 2022-C56
272P/NEAT,e,18.0731,109.4672,27.8938,4.461222,0.1045980,0.45482012,11.8160,11/07.0/2022,2000,g 16.0,2.0
# From MPC 82723
273P/Pons-Gambart,e,136.7116,320.3960,20.3089,31.96465,0.0054538,0.97432275,0.0000,12/21.1737/2012,2000,g 11.5,4.0
# From MPEC 2022-M21
274P/Tombaugh-Tenagra,e,15.8151,81.3330,38.4710,4.376873,0.1076361,0.43953239,22.8769,11/07.0/2022,2000,g 13.0,4.0
# From MPC 81862
275P/Hermann,e,21.2734,348.7562,173.9705,5.778212,0.0709600,0.71284481,256.8565,11/07.0/2022,2000,g 17.0,4.0
# From MPEC 2022-TA0
276P/Vorobjov,e,14.8107,211.3519,199.5063,5.324659,0.0802170,0.26789637,298.4722,11/07.0/2022,2000,g 11.5,4.0
# From MPEC 2021-F20
277P/LINEAR,e,16.7780,276.3125,152.3276,3.853456,0.1302952,0.50608639,88.1676,11/07.0/2022,2000,g 15.1,4.0
# From MPEC 2021-S45
278P/McNaught,e,6.6968,15.3838,237.6645,3.684088,0.1393827,0.43655341,109.6159,11/07.0/2022,2000,g 14.0,4.0
# From MPEC 2022-K19
279P/LaSagra,e,5.0525,346.2321,5.8634,3.572873,0.1459411,0.39876825,336.1241,11/07.0/2022,2000,g 14.0,4.0
# From MPEC 2022-K19
280P/Larsen,e,11.7727,131.3905,104.7365,4.530200,0.1022181,0.41725016,332.3300,11/07.0/2022,2000,g 12.5,4.0
# From MPEC 2021-W31
281P/MOSS,e,4.7184,87.1801,26.6535,4.876747,0.0915185,0.17271149,352.0778,11/07.0/2022,2000,g 11.0,4.0
# From MPC133426
282P/,e,5.8117,9.2972,217.6195,4.238531,0.1129486,0.18813356,42.7484,11/07.0/2022,2000,g 13.5,2.0
# From MPEC 2022-K19
283P/Spacewatch,e,14.4554,161.1282,22.2227,4.135942,0.1171770,0.48449440,49.8109,11/07.0/2022,2000,g 16.0,2.0
# From MPEC 2022-K19
284P/McNaught,e,11.8612,144.2619,202.4217,3.675983,0.1398440,0.37541036,58.7948,11/07.0/2022,2000,g 13.0,4.0
# From MPEC 2022-V95
285P/LINEAR,e,25.0388,185.5057,178.4284,4.509562,0.1029206,0.61872564,353.1772,11/07.0/2022,2000,g 15.0,4.0
# From MPEC 2022-V95
286P/Christensen,e,17.0389,283.9262,24.8891,4.114010,0.1181153,0.42613182,21.0629,11/07.0/2022,2000,g 14.0,4.0
# From MPEC 2022-QD9
287P/Christensen,e,16.3213,139.0434,189.0883,4.163691,0.1160076,0.27120255,332.0517,11/07.0/2022,2000,g 13.5,4.0
# From MPC133426
288P/,e,3.2383,83.1234,280.2043,3.048346,0.1851858,0.20059571,46.3590,11/07.0/2022,2000,g 16.0,2.0
# From MPEC 2022-K19
289P/Blanpain,e,5.8985,68.8853,9.8395,3.045649,0.1854319,0.68593629,195.0449,11/07.0/2022,2000,g 19.0,4.0
# From MPC 95214
290P/Jager,e,20.0423,302.6715,181.8568,6.216745,0.0635857,0.62731085,204.0837,11/07.0/2022,2000,g 10.5,4.0
# From MPEC 2022-V95
291P/NEAT,e,6.3031,237.6956,173.5403,4.544133,0.1017484,0.43558473,341.8626,11/07.0/2022,2000,g 13.0,4.0
# From MPEC 2022-K19
292P/Li,e,24.2879,90.9320,319.5168,6.102637,0.0653774,0.58946127,209.1250,11/07.0/2022,2000,g 12.5,4.0
# From MPEC 2022-L66
293P/Spacewatch,e,9.0593,78.3981,40.9634,3.641247,0.1418498,0.41837355,97.5765,11/07.0/2022,2000,g 14.5,4.0
# From MPEC 2020-SI8
294P/LINEAR,e,17.8933,311.4572,236.0564,3.186517,0.1732726,0.60333766,185.2892,11/07.0/2022,2000,g 15.5,4.0
# From MPEC 2022-K19
295P/LINEAR,e,21.0740,7.4381,72.8799,5.305269,0.0806572,0.61692999,250.7602,11/07.0/2022,2000,g 12.0,4.0
# From MPEC 2021-N06
296P/Garradd,e,25.2418,263.5617,350.0067,3.492592,0.1510019,0.47879397,117.8565,11/07.0/2022,2000,g 14.0,4.0
# From MPC102956
297P/Beshore,e,10.2931,97.1055,133.8235,3.460044,0.1531375,0.32096717,99.5388,11/07.0/2022,2000,g 15.0,4.0
# From MPC114609
298P/Christensen,e,7.8707,52.8210,100.6355,3.590299,0.1448799,0.38626298,114.7513,11/07.0/2022,2000,g 15.0,4.0
# From MPEC 2022-V95
299P/Catalina-PANSTARRS,e,10.4681,271.6077,323.7814,4.387843,0.1072327,0.28094885,301.9994,11/07.0/2022,2000,g 11.5,4.0
# From MPEC 2022-ED3
300P/Catalina,e,5.6739,95.6263,222.9458,2.699020,0.2222772,0.69170405,325.5230,11/07.0/2022,2000,g 16.0,4.0
# From MPC 89014
301P/LINEAR-NEAT,e,10.3390,351.1731,193.5787,5.740325,0.0716637,0.58535242,214.9511,11/07.0/2022,2000,g 13.0,4.0
# From MPEC 2022-K19
302P/Lemmon-PANSTARRS,e,6.0335,121.7366,208.4470,4.273501,0.1115651,0.23028355,264.9084,11/07.0/2022,2000,g 12.5,4.0
# From MPC 92278
303P/NEAT,e,7.0207,347.9687,356.9699,5.044231,0.0869985,0.51091989,255.5893,11/07.0/2022,2000,g 13.5,4.0
# From MPEC 2022-K19
304P/Ory,e,2.6074,58.9092,335.2590,3.150732,0.1762329,0.60089023,143.8366,11/07.0/2022,2000,g 16.5,4.0
# From MPC101100
305P/Skiff,e,11.6657,240.1020,147.3580,4.640716,0.0985886,0.69392757,286.9359,11/07.0/2022,2000,g 18.0,4.0
# From MPC 92278
306P/LINEAR,e,8.3099,341.3739,0.8812,3.124035,0.1784967,0.59320117,181.8532,11/07.0/2022,2000,g 19.0,4.0
# From MPC 92278
307P/LINEAR,e,4.4355,158.1663,222.1536,5.789902,0.0707452,0.67548812,203.3180,11/07.0/2022,2000,g 15.0,4.0
# From MPEC 2022-C56
308P/Lagerkvist-Carsenty,e,4.8540,63.0446,333.6485,6.600134,0.0581266,0.36448845,159.1257,11/07.0/2022,2000,g 13.0,2.0
# From MPC 94284
309P/LINEAR,e,17.0237,10.1461,49.9408,4.372892,0.1077832,0.61813842,305.2323,11/07.0/2022,2000,g 15.0,4.0
# From MPEC 2022-QD9
310P/Hill,e,13.1279,8.9204,31.7489,4.181973,0.1152477,0.42233675,319.5309,11/07.0/2022,2000,g 13.5,4.0
# From MPEC 2021-BE3
311P/PANSTARRS,e,4.9701,279.2124,144.5174,2.188149,0.3045009,0.11587645,231.5954,11/07.0/2022,2000,g 17.0,4.0
# From MPEC 2021-BE3
312P/NEAT,e,19.7652,144.6713,207.6412,3.469245,0.1525287,0.42777123,117.8735,11/07.0/2022,2000,g 16.0,4.0
# From MPEC 2021-S45
313P/Gibbs,e,10.9793,105.9595,254.8354,3.163943,0.1751302,0.23499102,163.7406,11/07.0/2022,2000,g 15.0,4.0
# From MPC105243
314P/Montani,e,3.9850,267.6060,213.9489,7.259158,0.0503935,0.41661244,111.9506,11/07.0/2022,2000,g  9.5,4.0
# From MPEC 2021-N06
315P/LONEOS,e,17.7369,68.7837,65.7373,4.940066,0.0897646,0.52097426,195.0550,11/07.0/2022,2000,g 11.0,4.0
# From MPC 92279
316P/LONEOS-Christensen,e,9.8249,246.3075,191.9934,4.381848,0.1074529,0.15589301,281.1039,11/07.0/2022,2000,g 13.5,4.0
# From MPEC 2020-C98
317P/WISE,e,11.9527,275.4856,334.8400,2.962544,0.1932889,0.57053624,149.2326,11/07.0/2022,2000,g 17.5,4.0
# From MPC102103
318P/McNaught-Hartley,e,17.8877,35.5116,313.3136,7.503812,0.0479492,0.67515713,123.1731,11/07.0/2022,2000,g  8.5,6.0
# From MPC 97499
